{
  "type": "FeatureCollection",
  "features": [
    {
      "type": "Feature",
      "properties": {
        "norad_id": 29894,
        "name": "FENGYUN 1C DEB",
        "group": "fengyun-1c-debris",
        "lat": -78.81433474206047,
        "lon": 111.48831242805673,
        "alt_km": 977.6478835422995,
        "timestamp": "2025-12-25T09:48:52.562449+00:00",
        "meta_object_name": "FENGYUN 1C DEB",
        "meta_object_id": "1999-025GQ",
        "meta_epoch": "2025-12-24T17:25:47.949888",
        "meta_mean_motion": 13.80986664,
        "meta_eccentricity": 0.01679801,
        "meta_inclination": 99.4844,
        "meta_ra_of_asc_node": 53.0927,
        "meta_arg_of_pericenter": 13.3556,
        "meta_mean_anomaly": 112.2827,
        "meta_ephemeris_type": 0,
        "meta_classification_type": "U",
        "meta_norad_cat_id": 29894,
        "meta_element_set_no": 999,
        "meta_rev_at_epoch": 95242,
        "meta_bstar": 0.00050493971,
        "meta_mean_motion_dot": 5.48e-06,
        "meta_mean_motion_ddot": 0,
        "tle_line1": "1 29894U 99025GQ  25358.72624942  .00000548  00000+0  50494-3 0  9997",
        "tle_line2": "2 29894  99.4844  53.0927 0167980  13.3556 112.2827 13.80986664952428"
      },
      "geometry": {
        "type": "Point",
        "coordinates": [
          111.48831242805673,
          -78.81433474206047
        ]
      }
    },
    {
      "type": "Feature",
      "properties": {
        "norad_id": 29895,
        "name": "FENGYUN 1C DEB",
        "group": "fengyun-1c-debris",
        "lat": -0.09903199827656411,
        "lon": -70.99100386854519,
        "alt_km": 1000.4936227296666,
        "timestamp": "2025-12-25T09:48:52.562459+00:00",
        "meta_object_name": "FENGYUN 1C DEB",
        "meta_object_id": "1999-025GR",
        "meta_epoch": "2025-12-24T19:54:03.920256",
        "meta_mean_motion": 14.08350265,
        "meta_eccentricity": 0.02997406,
        "meta_inclination": 99.8845,
        "meta_ra_of_asc_node": 108.3907,
        "meta_arg_of_pericenter": 310.5581,
        "meta_mean_anomaly": 174.4434,
        "meta_ephemeris_type": 0,
        "meta_classification_type": "U",
        "meta_norad_cat_id": 29895,
        "meta_element_set_no": 999,
        "meta_rev_at_epoch": 95694,
        "meta_bstar": 0.0022118412,
        "meta_mean_motion_dot": 5.669e-05,
        "meta_mean_motion_ddot": 0,
        "tle_line1": "1 29895U 99025GR  25358.82921204  .00005669  00000+0  22118-2 0  9990",
        "tle_line2": "2 29895  99.8845 108.3907 0299740 310.5581 174.4434 14.08350265956944"
      },
      "geometry": {
        "type": "Point",
        "coordinates": [
          -70.99100386854519,
          -0.09903199827656411
        ]
      }
    },
    {
      "type": "Feature",
      "properties": {
        "norad_id": 29896,
        "name": "FENGYUN 1C DEB",
        "group": "fengyun-1c-debris",
        "lat": 78.91284539430781,
        "lon": 128.7125277543581,
        "alt_km": 849.0300620287326,
        "timestamp": "2025-12-25T09:48:52.562469+00:00",
        "meta_object_name": "FENGYUN 1C DEB",
        "meta_object_id": "1999-025GS",
        "meta_epoch": "2025-12-24T15:55:31.646208",
        "meta_mean_motion": 13.65382996,
        "meta_eccentricity": 0.02401102,
        "meta_inclination": 99.4223,
        "meta_ra_of_asc_node": 250.0617,
        "meta_arg_of_pericenter": 71.2809,
        "meta_mean_anomaly": 321.4494,
        "meta_ephemeris_type": 0,
        "meta_classification_type": "U",
        "meta_norad_cat_id": 29896,
        "meta_element_set_no": 999,
        "meta_rev_at_epoch": 94205,
        "meta_bstar": 0.00069602939,
        "meta_mean_motion_dot": 6.49e-06,
        "meta_mean_motion_ddot": 0,
        "tle_line1": "1 29896U 99025GS  25358.66356072  .00000649  00000+0  69603-3 0  9992",
        "tle_line2": "2 29896  99.4223 250.0617 0240110  71.2809 321.4494 13.65382996942050"
      },
      "geometry": {
        "type": "Point",
        "coordinates": [
          128.7125277543581,
          78.91284539430781
        ]
      }
    },
    {
      "type": "Feature",
      "properties": {
        "norad_id": 29897,
        "name": "FENGYUN 1C DEB",
        "group": "fengyun-1c-debris",
        "lat": -1.9520043458448513,
        "lon": -137.55399041324205,
        "alt_km": 1109.0839184739389,
        "timestamp": "2025-12-25T09:48:52.562479+00:00",
        "meta_object_name": "FENGYUN 1C DEB",
        "meta_object_id": "1999-025GT",
        "meta_epoch": "2025-12-24T02:41:44.121408",
        "meta_mean_motion": 13.57226688,
        "meta_eccentricity": 0.0297074,
        "meta_inclination": 98.6294,
        "meta_ra_of_asc_node": 221.0097,
        "meta_arg_of_pericenter": 108.9895,
        "meta_mean_anomaly": 40.4478,
        "meta_ephemeris_type": 0,
        "meta_classification_type": "U",
        "meta_norad_cat_id": 29897,
        "meta_element_set_no": 999,
        "meta_rev_at_epoch": 93094,
        "meta_bstar": 0.0022033951,
        "meta_mean_motion_dot": 2.06e-05,
        "meta_mean_motion_ddot": 0,
        "tle_line1": "1 29897U 99025GT  25358.11231622  .00002060  00000+0  22034-2 0  9991",
        "tle_line2": "2 29897  98.6294 221.0097 0297074 108.9895  40.4478 13.57226688930945"
      },
      "geometry": {
        "type": "Point",
        "coordinates": [
          -137.55399041324205,
          -1.9520043458448513
        ]
      }
    },
    {
      "type": "Feature",
      "properties": {
        "norad_id": 29898,
        "name": "FENGYUN 1C DEB",
        "group": "fengyun-1c-debris",
        "lat": -70.13752693916452,
        "lon": 13.56362384924703,
        "alt_km": 1213.4888484615312,
        "timestamp": "2025-12-25T09:48:52.562489+00:00",
        "meta_object_name": "FENGYUN 1C DEB",
        "meta_object_id": "1999-025GU",
        "meta_epoch": "2025-12-24T22:04:43.443264",
        "meta_mean_motion": 13.70371148,
        "meta_eccentricity": 0.04271452,
        "meta_inclination": 98.2236,
        "meta_ra_of_asc_node": 349.5467,
        "meta_arg_of_pericenter": 156.3838,
        "meta_mean_anomaly": 237.0861,
        "meta_ephemeris_type": 0,
        "meta_classification_type": "U",
        "meta_norad_cat_id": 29898,
        "meta_element_set_no": 999,
        "meta_rev_at_epoch": 93328,
        "meta_bstar": 0.001566765,
        "meta_mean_motion_dot": 2.612e-05,
        "meta_mean_motion_ddot": 0,
        "tle_line1": "1 29898U 99025GU  25358.91994726  .00002612  00000+0  15668-2 0  9999",
        "tle_line2": "2 29898  98.2236 349.5467 0427145 156.3838 237.0861 13.70371148933280"
      },
      "geometry": {
        "type": "Point",
        "coordinates": [
          13.56362384924703,
          -70.13752693916452
        ]
      }
    },
    {
      "type": "Feature",
      "properties": {
        "norad_id": 29899,
        "name": "FENGYUN 1C DEB",
        "group": "fengyun-1c-debris",
        "lat": -81.29896990239993,
        "lon": -122.02390493161059,
        "alt_km": 1313.307139091963,
        "timestamp": "2025-12-25T09:48:52.562499+00:00",
        "meta_object_name": "FENGYUN 1C DEB",
        "meta_object_id": "1999-025GV",
        "meta_epoch": "2025-12-24T09:07:35.042016",
        "meta_mean_motion": 13.37495933,
        "meta_eccentricity": 0.03533689,
        "meta_inclination": 98.6622,
        "meta_ra_of_asc_node": 152.189,
        "meta_arg_of_pericenter": 49.7682,
        "meta_mean_anomaly": 313.3802,
        "meta_ephemeris_type": 0,
        "meta_classification_type": "U",
        "meta_norad_cat_id": 29899,
        "meta_element_set_no": 999,
        "meta_rev_at_epoch": 92240,
        "meta_bstar": 0.0002059069,
        "meta_mean_motion_dot": 1.21e-06,
        "meta_mean_motion_ddot": 0,
        "tle_line1": "1 29899U 99025GV  25358.38026669  .00000121  00000+0  20591-3 0  9998",
        "tle_line2": "2 29899  98.6622 152.1890 0353368  49.7682 313.3802 13.37495933922406"
      },
      "geometry": {
        "type": "Point",
        "coordinates": [
          -122.02390493161059,
          -81.29896990239993
        ]
      }
    },
    {
      "type": "Feature",
      "properties": {
        "norad_id": 29901,
        "name": "FENGYUN 1C DEB",
        "group": "fengyun-1c-debris",
        "lat": -81.10240636066992,
        "lon": -112.12407719017176,
        "alt_km": 869.7076709724533,
        "timestamp": "2025-12-25T09:48:52.562509+00:00",
        "meta_object_name": "FENGYUN 1C DEB",
        "meta_object_id": "1999-025GX",
        "meta_epoch": "2025-12-24T11:07:38.049312",
        "meta_mean_motion": 13.33260616,
        "meta_eccentricity": 0.03792351,
        "meta_inclination": 98.7449,
        "meta_ra_of_asc_node": 167.6021,
        "meta_arg_of_pericenter": 256.0591,
        "meta_mean_anomaly": 159.3916,
        "meta_ephemeris_type": 0,
        "meta_classification_type": "U",
        "meta_norad_cat_id": 29901,
        "meta_element_set_no": 999,
        "meta_rev_at_epoch": 92075,
        "meta_bstar": 0.00041726939,
        "meta_mean_motion_dot": 2.69e-06,
        "meta_mean_motion_ddot": 0,
        "tle_line1": "1 29901U 99025GX  25358.46363483  .00000269  00000+0  41727-3 0  9996",
        "tle_line2": "2 29901  98.7449 167.6021 0379235 256.0591 159.3916 13.33260616920752"
      },
      "geometry": {
        "type": "Point",
        "coordinates": [
          -112.12407719017176,
          -81.10240636066992
        ]
      }
    }
  ]
}